SL-16 R/B               
1 25407U 98045B   26071.04533856  .00000273  00000+0  16173-3 0  9996
2 25407  71.0120 176.6203 0006893   4.6284 355.4902 14.16191171427436
ISS (ZARYA)             
1 25544U 98067A   26071.15917149  .00009166  00000+0  17667-3 0  9994
2 25544  51.6325  60.1463 0007984 183.4136 176.6799 15.48595269556711
CZ-4B R/B               
1 25732U 99025C   26071.13515922  .00000043  00000+0  41837-4 0  9991
2 25732  98.6622 115.3587 0036616 339.4833  84.3041 14.18265816388516
OKEAN-O                 
1 25860U 99039A   26071.15292594  .00000839  00000+0  11691-3 0  9994
2 25860  97.9437 131.0194 0001170  70.3123 289.8215 14.80339931434755
SL-16 R/B               
1 25861U 99039B   26071.13046899  .00000627  00000+0  86309-4 0  9992
2 25861  97.9962 130.2237 0013577 247.2864 112.6914 14.81735120437224
DELTA 2 R/B             
1 25876U 99041E   26070.91950208  .00001275  00000+0  24346-3 0  9996
2 25876  51.7626 292.3741 0502434 355.0068   4.5958 14.11844613363343
HELIOS 1B               
1 25977U 99064A   26071.00064504  .00002159  00000+0  24331-3 0  9995
2 25977  98.1687 333.3117 0002446  72.0340 288.1142 14.87709258685606
TERRA                   
1 25994U 99068A   26071.18196441  .00000548  00000+0  12075-3 0  9995
2 25994  97.9589 124.5214 0002849 145.8395 281.6590 14.61017853395447
SL-16 R/B               
1 26070U 00006B   26071.20266183 -.00000168  00000+0 -61272-4 0  9993
2 26070  71.0006  92.5532 0016631 186.5264 173.5646 14.15825416348910
TITAN 4B R/B            
1 26474U 00047B   26071.14807369  .00005228  00000+0  32713-3 0  9993
2 26474  67.9902  33.5971 0038661  32.5259 327.8260 15.09590605393289
ENVISAT                 
1 27386U 02009A   26071.10546161  .00000147  00000+0  61609-4 0  9994
2 27386  98.3731  24.6453 0001308  83.2940 287.7334 14.39037883259524
IDEFIX & ARIANE 42P R/B 
1 27422U 02021B   26070.80322123  .00000338  00000+0  14480-3 0  9991
2 27422  98.5869   9.3842 0011697 175.9688 184.1592 14.31027862244327
