CCSDS_OMM_VERS = 2.0
CREATION_DATE  = 
ORIGINATOR     = 

OBJECT_NAME    = SL-16 R/B
OBJECT_ID      = 1998-045B
CENTER_NAME    = EARTH
REF_FRAME      = TEME
TIME_SYSTEM    = UTC
MEAN_ELEMENT_THEORY = SGP/SGP4

EPOCH          = 2026-03-12T01:05:17.251584
MEAN_MOTION    = 14.16191171
ECCENTRICITY   = .0006893
INCLINATION    = 71.0120
RA_OF_ASC_NODE = 176.6203
ARG_OF_PERICENTER = 4.6284
MEAN_ANOMALY   = 355.4902

EPHEMERIS_TYPE = 0
CLASSIFICATION_TYPE = U
NORAD_CAT_ID   = 25407
ELEMENT_SET_NO = 999
REV_AT_EPOCH   = 42743
BSTAR          = .16173E-3
MEAN_MOTION_DOT = .273E-5
MEAN_MOTION_DDOT = 0

CCSDS_OMM_VERS = 2.0
CREATION_DATE  = 
ORIGINATOR     = 

OBJECT_NAME    = ISS (ZARYA)
OBJECT_ID      = 1998-067A
CENTER_NAME    = EARTH
REF_FRAME      = TEME
TIME_SYSTEM    = UTC
MEAN_ELEMENT_THEORY = SGP/SGP4

EPOCH          = 2026-03-12T03:49:12.416736
MEAN_MOTION    = 15.48595269
ECCENTRICITY   = .0007984
INCLINATION    = 51.6325
RA_OF_ASC_NODE = 60.1463
ARG_OF_PERICENTER = 183.4136
MEAN_ANOMALY   = 176.6799

EPHEMERIS_TYPE = 0
CLASSIFICATION_TYPE = U
NORAD_CAT_ID   = 25544
ELEMENT_SET_NO = 999
REV_AT_EPOCH   = 55671
BSTAR          = .17667E-3
MEAN_MOTION_DOT = .9166E-4
MEAN_MOTION_DDOT = 0

CCSDS_OMM_VERS = 2.0
CREATION_DATE  = 
ORIGINATOR     = 

OBJECT_NAME    = CZ-4B R/B
OBJECT_ID      = 1999-025C
CENTER_NAME    = EARTH
REF_FRAME      = TEME
TIME_SYSTEM    = UTC
MEAN_ELEMENT_THEORY = SGP/SGP4

EPOCH          = 2026-03-12T03:14:37.756608
MEAN_MOTION    = 14.18265816
ECCENTRICITY   = .0036616
INCLINATION    = 98.6622
RA_OF_ASC_NODE = 115.3587
ARG_OF_PERICENTER = 339.4833
MEAN_ANOMALY   = 84.3041

EPHEMERIS_TYPE = 0
CLASSIFICATION_TYPE = U
NORAD_CAT_ID   = 25732
ELEMENT_SET_NO = 999
REV_AT_EPOCH   = 38851
BSTAR          = .41837E-4
MEAN_MOTION_DOT = .43E-6
MEAN_MOTION_DDOT = 0

CCSDS_OMM_VERS = 2.0
CREATION_DATE  = 
ORIGINATOR     = 

OBJECT_NAME    = OKEAN-O
OBJECT_ID      = 1999-039A
CENTER_NAME    = EARTH
REF_FRAME      = TEME
TIME_SYSTEM    = UTC
MEAN_ELEMENT_THEORY = SGP/SGP4

EPOCH          = 2026-03-12T03:40:12.801216
MEAN_MOTION    = 14.80339931
ECCENTRICITY   = .000117
INCLINATION    = 97.9437
RA_OF_ASC_NODE = 131.0194
ARG_OF_PERICENTER = 70.3123
MEAN_ANOMALY   = 289.8215

EPHEMERIS_TYPE = 0
CLASSIFICATION_TYPE = U
NORAD_CAT_ID   = 25860
ELEMENT_SET_NO = 999
REV_AT_EPOCH   = 43475
BSTAR          = .11691E-3
MEAN_MOTION_DOT = .839E-5
MEAN_MOTION_DDOT = 0

CCSDS_OMM_VERS = 2.0
CREATION_DATE  = 
ORIGINATOR     = 

OBJECT_NAME    = SL-16 R/B
OBJECT_ID      = 1999-039B
CENTER_NAME    = EARTH
REF_FRAME      = TEME
TIME_SYSTEM    = UTC
MEAN_ELEMENT_THEORY = SGP/SGP4

EPOCH          = 2026-03-12T03:07:52.520736
MEAN_MOTION    = 14.81735120
ECCENTRICITY   = .0013577
INCLINATION    = 97.9962
RA_OF_ASC_NODE = 130.2237
ARG_OF_PERICENTER = 247.2864
MEAN_ANOMALY   = 112.6914

EPHEMERIS_TYPE = 0
CLASSIFICATION_TYPE = U
NORAD_CAT_ID   = 25861
ELEMENT_SET_NO = 999
REV_AT_EPOCH   = 43722
BSTAR          = .86309E-4
MEAN_MOTION_DOT = .627E-5
MEAN_MOTION_DDOT = 0

CCSDS_OMM_VERS = 2.0
CREATION_DATE  = 
ORIGINATOR     = 

OBJECT_NAME    = DELTA 2 R/B
OBJECT_ID      = 1999-041E
CENTER_NAME    = EARTH
REF_FRAME      = TEME
TIME_SYSTEM    = UTC
MEAN_ELEMENT_THEORY = SGP/SGP4

EPOCH          = 2026-03-11T22:04:04.979712
MEAN_MOTION    = 14.11844613
ECCENTRICITY   = .0502434
INCLINATION    = 51.7626
RA_OF_ASC_NODE = 292.3741
ARG_OF_PERICENTER = 355.0068
MEAN_ANOMALY   = 4.5958

EPHEMERIS_TYPE = 0
CLASSIFICATION_TYPE = U
NORAD_CAT_ID   = 25876
ELEMENT_SET_NO = 999
REV_AT_EPOCH   = 36334
BSTAR          = .24346E-3
MEAN_MOTION_DOT = .1275E-4
MEAN_MOTION_DDOT = 0

CCSDS_OMM_VERS = 2.0
CREATION_DATE  = 
ORIGINATOR     = 

OBJECT_NAME    = HELIOS 1B
OBJECT_ID      = 1999-064A
CENTER_NAME    = EARTH
REF_FRAME      = TEME
TIME_SYSTEM    = UTC
MEAN_ELEMENT_THEORY = SGP/SGP4

EPOCH          = 2026-03-12T00:00:55.731456
MEAN_MOTION    = 14.87709258
ECCENTRICITY   = .0002446
INCLINATION    = 98.1687
RA_OF_ASC_NODE = 333.3117
ARG_OF_PERICENTER = 72.0340
MEAN_ANOMALY   = 288.1142

EPHEMERIS_TYPE = 0
CLASSIFICATION_TYPE = U
NORAD_CAT_ID   = 25977
ELEMENT_SET_NO = 999
REV_AT_EPOCH   = 68560
BSTAR          = .24331E-3
MEAN_MOTION_DOT = .2159E-4
MEAN_MOTION_DDOT = 0

CCSDS_OMM_VERS = 2.0
CREATION_DATE  = 
ORIGINATOR     = 

OBJECT_NAME    = TERRA
OBJECT_ID      = 1999-068A
CENTER_NAME    = EARTH
REF_FRAME      = TEME
TIME_SYSTEM    = UTC
MEAN_ELEMENT_THEORY = SGP/SGP4

EPOCH          = 2026-03-12T04:22:01.725024
MEAN_MOTION    = 14.61017853
ECCENTRICITY   = .0002849
INCLINATION    = 97.9589
RA_OF_ASC_NODE = 124.5214
ARG_OF_PERICENTER = 145.8395
MEAN_ANOMALY   = 281.6590

EPHEMERIS_TYPE = 0
CLASSIFICATION_TYPE = U
NORAD_CAT_ID   = 25994
ELEMENT_SET_NO = 999
REV_AT_EPOCH   = 39544
BSTAR          = .12075E-3
MEAN_MOTION_DOT = .548E-5
MEAN_MOTION_DDOT = 0

CCSDS_OMM_VERS = 2.0
CREATION_DATE  = 
ORIGINATOR     = 

OBJECT_NAME    = SL-16 R/B
OBJECT_ID      = 2000-006B
CENTER_NAME    = EARTH
REF_FRAME      = TEME
TIME_SYSTEM    = UTC
MEAN_ELEMENT_THEORY = SGP/SGP4

EPOCH          = 2026-03-12T04:51:49.982112
MEAN_MOTION    = 14.15825416
ECCENTRICITY   = .0016631
INCLINATION    = 71.0006
RA_OF_ASC_NODE = 92.5532
ARG_OF_PERICENTER = 186.5264
MEAN_ANOMALY   = 173.5646

EPHEMERIS_TYPE = 0
CLASSIFICATION_TYPE = U
NORAD_CAT_ID   = 26070
ELEMENT_SET_NO = 999
REV_AT_EPOCH   = 34891
BSTAR          = -.61272E-4
MEAN_MOTION_DOT = -.168E-5
MEAN_MOTION_DDOT = 0

CCSDS_OMM_VERS = 2.0
CREATION_DATE  = 
ORIGINATOR     = 

OBJECT_NAME    = TITAN 4B R/B
OBJECT_ID      = 2000-047B
CENTER_NAME    = EARTH
REF_FRAME      = TEME
TIME_SYSTEM    = UTC
MEAN_ELEMENT_THEORY = SGP/SGP4

EPOCH          = 2026-03-12T03:33:13.566816
MEAN_MOTION    = 15.09590605
ECCENTRICITY   = .0038661
INCLINATION    = 67.9902
RA_OF_ASC_NODE = 33.5971
ARG_OF_PERICENTER = 32.5259
MEAN_ANOMALY   = 327.8260

EPHEMERIS_TYPE = 0
CLASSIFICATION_TYPE = U
NORAD_CAT_ID   = 26474
ELEMENT_SET_NO = 999
REV_AT_EPOCH   = 39328
BSTAR          = .32713E-3
MEAN_MOTION_DOT = .5228E-4
MEAN_MOTION_DDOT = 0

CCSDS_OMM_VERS = 2.0
CREATION_DATE  = 
ORIGINATOR     = 

OBJECT_NAME    = ENVISAT
OBJECT_ID      = 2002-009A
CENTER_NAME    = EARTH
REF_FRAME      = TEME
TIME_SYSTEM    = UTC
MEAN_ELEMENT_THEORY = SGP/SGP4

EPOCH          = 2026-03-12T02:31:51.883104
MEAN_MOTION    = 14.39037883
ECCENTRICITY   = .0001308
INCLINATION    = 98.3731
RA_OF_ASC_NODE = 24.6453
ARG_OF_PERICENTER = 83.2940
MEAN_ANOMALY   = 287.7334

EPHEMERIS_TYPE = 0
CLASSIFICATION_TYPE = U
NORAD_CAT_ID   = 27386
ELEMENT_SET_NO = 999
REV_AT_EPOCH   = 25952
BSTAR          = .61609E-4
MEAN_MOTION_DOT = .147E-5
MEAN_MOTION_DDOT = 0

CCSDS_OMM_VERS = 2.0
CREATION_DATE  = 
ORIGINATOR     = 

OBJECT_NAME    = IDEFIX & ARIANE 42P R/B
OBJECT_ID      = 2002-021B
CENTER_NAME    = EARTH
REF_FRAME      = TEME
TIME_SYSTEM    = UTC
MEAN_ELEMENT_THEORY = SGP/SGP4

EPOCH          = 2026-03-11T19:16:38.314272
MEAN_MOTION    = 14.31027862
ECCENTRICITY   = .0011697
INCLINATION    = 98.5869
RA_OF_ASC_NODE = 9.3842
ARG_OF_PERICENTER = 175.9688
MEAN_ANOMALY   = 184.1592

EPHEMERIS_TYPE = 0
CLASSIFICATION_TYPE = U
NORAD_CAT_ID   = 27422
ELEMENT_SET_NO = 999
REV_AT_EPOCH   = 24432
BSTAR          = .14479661E-3
MEAN_MOTION_DOT = .338E-5
MEAN_MOTION_DDOT = 0

